{"type": "FeatureCollection", "features": [ {"type": "Feature", "properties": {"norad_id": 38487, "name": "COSMOS 2251 DEB", "group": "cosmos-2251-debris", "lat": -49.97325449236266, "lon": -107.74473482426171, "alt_km": 506.4019698594193, "timestamp": "2025-12-03T22:42:33.030620+00:00", "meta": {"OBJECT_NAME": "COSMOS 2251 DEB", "OBJECT_ID": "1993-036BTX", "EPOCH": "2025-11-25T23:36:21.750048", "MEAN_MOTION": 15.15423903, "ECCENTRICITY": 0.00258162, "INCLINATION": 73.973, "RA_OF_ASC_NODE": 68.8809, "ARG_OF_PERICENTER": 242.4784, "MEAN_ANOMALY": 117.3787, "EPHEMERIS_TYPE": 0, "CLASSIFICATION_TYPE": "U", "NORAD_CAT_ID": 38487, "ELEMENT_SET_NO": 999, "REV_AT_EPOCH": 66546, "BSTAR": 0.0025488114, "MEAN_MOTION_DOT": 0.00048866, "MEAN_MOTION_DDOT": 0}, "tle": {"line1": "1 38487U 93036BTX 25329.98358507  .00048866  00000+0  25488-2 0  9997", "line2": "2 38487  73.9730  68.8809 0025816 242.4784 117.3787 15.15423903665467"}}, "geometry": {"type": "Point", "coordinates": [-107.74473482426171, -49.97325449236266]}}, {"type": "Feature", "properties": {"norad_id": 39109, "name": "COSMOS 2251 DEB", "group": "cosmos-2251-debris", "lat": -1.116387057481733, "lon": 62.46554936992434, "alt_km": 700.8853632731534, "timestamp": "2025-12-03T22:42:33.030628+00:00", "meta": {"OBJECT_NAME": "COSMOS 2251 DEB", "OBJECT_ID": "1993-036BTY", "EPOCH": "2025-11-13T05:50:34.179360", "MEAN_MOTION": 14.70365272, "ECCENTRICITY": 0.0058425, "INCLINATION": 74.0424, "RA_OF_ASC_NODE": 282.2926, "ARG_OF_PERICENTER": 32.7567, "MEAN_ANOMALY": 29.6254, "EPHEMERIS_TYPE": 0, "CLASSIFICATION_TYPE": "U", "NORAD_CAT_ID": 39109, "ELEMENT_SET_NO": 999, "REV_AT_EPOCH": 64740, "BSTAR": 0.0018778, "MEAN_MOTION_DOT": 0.00011647, "MEAN_MOTION_DDOT": 0}, "tle": {"line1": "1 39109U 93036BTY 25317.24345115  .00011647  00000+0  18778-2 0  9997", "line2": "2 39109  74.0424 282.2926 0058425  32.7567  29.6254 14.70365272647406"}}, "geometry": {"type": "Point", "coordinates": [62.46554936992434, -1.116387057481733]}}, {"type": "Feature", "properties": {"norad_id": 39110, "name": "COSMOS 2251 DEB", "group": "cosmos-2251-debris", "lat": -52.771411579132085, "lon": 56.456066328907426, "alt_km": 593.3866221269636, "timestamp": "2025-12-03T22:42:33.030637+00:00", "meta": {"OBJECT_NAME": "COSMOS 2251 DEB", "OBJECT_ID": "1993-036BTZ", "EPOCH": "2025-11-26T14:53:47.177952", "MEAN_MOTION": 14.72173174, "ECCENTRICITY": 0.00967356, "INCLINATION": 73.9585, "RA_OF_ASC_NODE": 93.0232, "ARG_OF_PERICENTER": 328.841, "MEAN_ANOMALY": 46.9197, "EPHEMERIS_TYPE": 0, "CLASSIFICATION_TYPE": "U", "NORAD_CAT_ID": 39110, "ELEMENT_SET_NO": 999, "REV_AT_EPOCH": 62247, "BSTAR": 0.00042648822, "MEAN_MOTION_DOT": 2.857e-05, "MEAN_MOTION_DDOT": 0}, "tle": {"line1": "1 39110U 93036BTZ 25330.62068493  .00002857  00000+0  42649-3 0  9995", "line2": "2 39110  73.9585  93.0232 0096735 328.8410  46.9197 14.72173174622472"}}, "geometry": {"type": "Point", "coordinates": [56.456066328907426, -52.771411579132085]}}, {"type": "Feature", "properties": {"norad_id": 39111, "name": "COSMOS 2251 DEB", "group": "cosmos-2251-debris", "lat": 28.74033570841515, "lon": 68.46332649487054, "alt_km": 521.4707531131044, "timestamp": "2025-12-03T22:42:33.030646+00:00", "meta": {"OBJECT_NAME": "COSMOS 2251 DEB", "OBJECT_ID": "1993-036BUA", "EPOCH": "2025-11-17T15:40:41.824704", "MEAN_MOTION": 15.09497671, "ECCENTRICITY": 0.00084083, "INCLINATION": 74.0067, "RA_OF_ASC_NODE": 93.139, "ARG_OF_PERICENTER": 94.0367, "MEAN_ANOMALY": 266.1786, "EPHEMERIS_TYPE": 0, "CLASSIFICATION_TYPE": "U", "NORAD_CAT_ID": 39111, "ELEMENT_SET_NO": 999, "REV_AT_EPOCH": 8766, "BSTAR": 0.0056310804, "MEAN_MOTION_DOT": 0.00091468, "MEAN_MOTION_DDOT": 0}, "tle": {"line1": "1 39111U 93036BUA 25321.65326186  .00091468  00000+0  56311-2 0  9991", "line2": "2 39111  74.0067  93.1390 0008408  94.0367 266.1786 15.09497671 87667"}}, "geometry": {"type": "Point", "coordinates": [68.46332649487054, 28.74033570841515]}}, {"type": "Feature", "properties": {"norad_id": 39546, "name": "COSMOS 2251 DEB", "group": "cosmos-2251-debris", "lat": 73.97025728902983, "lon": -118.147063857039, "alt_km": 606.3150706262859, "timestamp": "2025-12-03T22:42:33.030655+00:00", "meta": {"OBJECT_NAME": "COSMOS 2251 DEB", "OBJECT_ID": "1993-036BUC", "EPOCH": "2025-12-01T05:55:26.467104", "MEAN_MOTION": 14.91578832, "ECCENTRICITY": 0.0043624, "INCLINATION": 73.9966, "RA_OF_ASC_NODE": 159.9082, "ARG_OF_PERICENTER": 321.5487, "MEAN_ANOMALY": 38.2588, "EPHEMERIS_TYPE": 0, "CLASSIFICATION_TYPE": "U", "NORAD_CAT_ID": 39546, "ELEMENT_SET_NO": 999, "REV_AT_EPOCH": 64265, "BSTAR": 0.0014755, "MEAN_MOTION_DOT": 0.00015069, "MEAN_MOTION_DDOT": 0}, "tle": {"line1": "1 39546U 93036BUC 25335.24683411  .00015069  00000+0  14755-2 0  9999", "line2": "2 39546  73.9966 159.9082 0043624 321.5487  38.2588 14.91578832642657"}}, "geometry": {"type": "Point", "coordinates": [-118.147063857039, 73.97025728902983]}}, {"type": "Feature", "properties": {"norad_id": 39547, "name": "COSMOS 2251 DEB", "group": "cosmos-2251-debris", "lat": 73.90833397821491, "lon": 132.3927615059228, "alt_km": 550.8100887207302, "timestamp": "2025-12-03T22:42:33.030664+00:00", "meta": {"OBJECT_NAME": "COSMOS 2251 DEB", "OBJECT_ID": "1993-036BUD", "EPOCH": "2025-11-30T11:15:54.738720", "MEAN_MOTION": 15.02045479, "ECCENTRICITY": 0.00039238, "INCLINATION": 74.0029, "RA_OF_ASC_NODE": 43.4753, "ARG_OF_PERICENTER": 44.4472, "MEAN_ANOMALY": 333.0483, "EPHEMERIS_TYPE": 0, "CLASSIFICATION_TYPE": "U", "NORAD_CAT_ID": 39547, "ELEMENT_SET_NO": 999, "REV_AT_EPOCH": 63841, "BSTAR": 0.00286575, "MEAN_MOTION_DOT": 0.00037782, "MEAN_MOTION_DDOT": 0}, "tle": {"line1": "1 39547U 93036BUD 25334.46938355  .00037782  00000+0  28657-2 0  9995", "line2": "2 39547  74.0029  43.4753 0003923  44.4472 333.0483 15.02045479638413"}}, "geometry": {"type": "Point", "coordinates": [132.3927615059228, 73.90833397821491]}}, {"type": "Feature", "properties": {"norad_id": 39553, "name": "COSMOS 2251 DEB", "group": "cosmos-2251-debris", "lat": -72.50046167929244, "lon": -80.01930276230475, "alt_km": 1031.9207435304897, "timestamp": "2025-12-03T22:42:33.030673+00:00", "meta": {"OBJECT_NAME": "COSMOS 2251 DEB", "OBJECT_ID": "1993-036BUK", "EPOCH": "2025-12-01T17:56:57.014304", "MEAN_MOTION": 13.99866529, "ECCENTRICITY": 0.02013394, "INCLINATION": 74.0297, "RA_OF_ASC_NODE": 349.0518, "ARG_OF_PERICENTER": 127.8246, "MEAN_ANOMALY": 234.1304, "EPHEMERIS_TYPE": 0, "CLASSIFICATION_TYPE": "U", "NORAD_CAT_ID": 39553, "ELEMENT_SET_NO": 999, "REV_AT_EPOCH": 75463, "BSTAR": 0.00053939206, "MEAN_MOTION_DOT": 9.2e-06, "MEAN_MOTION_DDOT": 0}, "tle": {"line1": "1 39553U 93036BUK 25335.74788211  .00000920  00000+0  53939-3 0  9994", "line2": "2 39553  74.0297 349.0518 0201339 127.8246 234.1304 13.99866529754634"}}, "geometry": {"type": "Point", "coordinates": [-80.01930276230475, -72.50046167929244]}}, {"type": "Feature", "properties": {"norad_id": 39554, "name": "COSMOS 2251 DEB", "group": "cosmos-2251-debris", "lat": 60.97302537136554, "lon": -46.12712043928527, "alt_km": 531.5515308470567, "timestamp": "2025-12-03T22:42:33.030682+00:00", "meta": {"OBJECT_NAME": "COSMOS 2251 DEB", "OBJECT_ID": "1993-036BUL", "EPOCH": "2025-11-30T15:36:56.637792", "MEAN_MOTION": 15.08660873, "ECCENTRICITY": 0.0002133, "INCLINATION": 74.0183, "RA_OF_ASC_NODE": 289.5718, "ARG_OF_PERICENTER": 61.0833, "MEAN_ANOMALY": 111.3721, "EPHEMERIS_TYPE": 0, "CLASSIFICATION_TYPE": "U", "NORAD_CAT_ID": 39554, "ELEMENT_SET_NO": 999, "REV_AT_EPOCH": 64202, "BSTAR": 0.0031443, "MEAN_MOTION_DOT": 0.00049575, "MEAN_MOTION_DDOT": 0}, "tle": {"line1": "1 39554U 93036BUL 25334.65065553  .00049575  00000+0  31443-2 0  9995", "line2": "2 39554  74.0183 289.5718 0002133  61.0833 111.3721 15.08660873642025"}}, "geometry": {"type": "Point", "coordinates": [-46.12712043928527, 60.97302537136554]}}, {"type": "Feature", "properties": {"norad_id": 39583, "name": "COSMOS 2251 DEB", "group": "cosmos-2251-debris", "lat": -50.06057169903535, "lon": 104.2586972781097, "alt_km": 779.1902078596604, "timestamp": "2025-12-03T22:42:33.030691+00:00", "meta": {"OBJECT_NAME": "COSMOS 2251 DEB", "OBJECT_ID": "1993-036BUN", "EPOCH": "2025-12-03T11:46:41.592288", "MEAN_MOTION": 14.60101482, "ECCENTRICITY": 0.0136293, "INCLINATION": 73.9344, "RA_OF_ASC_NODE": 265.002, "ARG_OF_PERICENTER": 20.2137, "MEAN_ANOMALY": 340.435, "EPHEMERIS_TYPE": 0, "CLASSIFICATION_TYPE": "U", "NORAD_CAT_ID": 39583, "ELEMENT_SET_NO": 999, "REV_AT_EPOCH": 61644, "BSTAR": 0.0029015, "MEAN_MOTION_DOT": 0.00015908, "MEAN_MOTION_DDOT": 0}, "tle": {"line1": "1 39583U 93036BUN 25337.49075917  .00015908  00000+0  29015-2 0  9992", "line2": "2 39583  73.9344 265.0020 0136293  20.2137 340.4350 14.60101482616441"}}, "geometry": {"type": "Point", "coordinates": [104.2586972781097, -50.06057169903535]}}, {"type": "Feature", "properties": {"norad_id": 39585, "name": "COSMOS 2251 DEB", "group": "cosmos-2251-debris", "lat": 63.480229089974515, "lon": 103.06674005522177, "alt_km": 650.8691998273034, "timestamp": "2025-12-03T22:42:33.030700+00:00", "meta": {"OBJECT_NAME": "COSMOS 2251 DEB", "OBJECT_ID": "1993-036BUQ", "EPOCH": "2025-11-29T06:16:21.203328", "MEAN_MOTION": 14.58611374, "ECCENTRICITY": 0.00652828, "INCLINATION": 74.0406, "RA_OF_ASC_NODE": 326.9733, "ARG_OF_PERICENTER": 91.8532, "MEAN_ANOMALY": 269.0111, "EPHEMERIS_TYPE": 0, "CLASSIFICATION_TYPE": "U", "NORAD_CAT_ID": 39585, "ELEMENT_SET_NO": 999, "REV_AT_EPOCH": 62324, "BSTAR": 0.00023928135, "MEAN_MOTION_DOT": 1.117e-05, "MEAN_MOTION_DDOT": 0}, "tle": {"line1": "1 39585U 93036BUQ 25333.26135652  .00001117  00000+0  23928-3 0  9993", "line2": "2 39585  74.0406 326.9733 0065282  91.8532 269.0111 14.58611374623244"}}, "geometry": {"type": "Point", "coordinates": [103.06674005522177, 63.480229089974515]}}]}